NORAD_CAT_ID,OBJECT_NAME,OBJECT_TYPE,EPOCH,MEAN_MOTION,ECCENTRICITY,INCLINATION,RA_OF_ASC_NODE,ARG_OF_PERICENTER,MEAN_ANOMALY,BSTAR,MEAN_MOTION_DOT,MEAN_MOTION_DDOT,TLE_LINE0,TLE_LINE1,TLE_LINE2,SEMIMAJOR_AXIS,PERIOD,APOGEE,PERIGEE,DECAYED
53425.0,STARLINK-4531,PAYLOAD,2024-04-03 13:02:45,15.08843739,0.0001304,53.2178,39.6408,88.8041,271.3101,0.00010609,1.401e-05,0.0,0 STARLINK-4531,1 53425U 22097AP  24094.54358336  .00001401  00000-0  10609-3 0  9990,2 53425  53.2178  39.6408 0001304  88.8041 271.3101 15.08843739 92165,6917.869,95.437,540.636,538.832,0.0
53425.0,STARLINK-4531,PAYLOAD,2024-04-03 20:59:41,15.0883966,0.0001478,53.2193,38.1611,117.326,242.7883,-9.3554e-05,-1.777e-05,0.0,0 STARLINK-4531,1 53425U 22097AP  24094.87478550 -.00001777  00000-0 -93554-4 0  9996,2 53425  53.2193  38.1611 0001478 117.3260 242.7883 15.08839660 91767,6917.881,95.438,540.769,538.724,0.0
53425.0,STARLINK-4531,PAYLOAD,2024-04-04 12:53:33,15.08841189,0.0001185,53.2183,35.1851,100.9385,259.174,-2.7093e-05,-7.19e-06,0.0,0 STARLINK-4531,1 53425U 22097AP  24095.53718960 -.00000719  00000-0 -27093-4 0  9992,2 53425  53.2183  35.1851 0001185 100.9385 259.1740 15.08841189 92315,6917.877,95.437,540.562,538.922,0.0
53425.0,STARLINK-4531,PAYLOAD,2024-04-05 04:47:24,15.08847856,0.0001129,53.2182,32.2113,100.5353,259.5767,3.1972e-05,2.21e-06,0.0,0 STARLINK-4531,1 53425U 22097AP  24096.19958596  .00000221  00000-0  31972-4 0  9993,2 53425  53.2182  32.2113 0001129 100.5353 259.5767 15.08847856 91962,6917.856,95.437,540.502,538.94,0.0
53425.0,STARLINK-4531,PAYLOAD,2024-04-05 12:44:19,15.08849518,0.0001035,53.2179,30.7237,102.2646,257.8462,1.7139e-05,-1.5e-07,0.0,0 STARLINK-4531,1 53425U 22097AP  24096.53078333 -.00000015  00000-0  17139-4 0  9994,2 53425  53.2179  30.7237 0001035 102.2646 257.8462 15.08849518 92464,6917.851,95.437,540.432,539.0,0.0
53425.0,STARLINK-4531,PAYLOAD,2024-04-06 12:35:07,15.08840848,0.0001106,53.2187,26.2628,90.0756,270.0363,7.3395e-05,8.8e-06,0.0,0 STARLINK-4531,1 53425U 22097AP  24097.52438762  .00000880  00000-0  73395-4 0  9995,2 53425  53.2187  26.2628 0001106  90.0756 270.0363 15.08840848 92163,6917.878,95.438,540.508,538.978,0.0
53425.0,STARLINK-4531,PAYLOAD,2024-04-06 18:56:39,15.08839255,0.000137,53.2173,25.0744,85.6172,274.4977,7.8937e-05,9.69e-06,0.0,0 STARLINK-4531,1 53425U 22097AP  24097.78934991  .00000969  00000-0  78937-4 0  9993,2 53425  53.2173  25.0744 0001370  85.6172 274.4977 15.08839255 92652,6917.883,95.438,540.695,538.8,0.0
53425.0,STARLINK-4531,PAYLOAD,2024-04-07 12:25:54,15.08841014,0.0001229,53.2183,21.8013,95.3335,264.7797,5.4679e-05,5.82e-06,0.0,0 STARLINK-4531,1 53425U 22097AP  24098.51799009  .00000582  00000-0  54679-4 0  9992,2 53425  53.2183  21.8013 0001229  95.3335 264.7797 15.08841014 92768,6917.877,95.437,540.592,538.892,0.0
53425.0,STARLINK-4531,PAYLOAD,2024-04-07 21:58:13,15.08841663,0.0001068,53.2185,20.0182,95.8171,264.2943,7.4449e-05,8.97e-06,0.0,0 STARLINK-4531,1 53425U 22097AP  24098.91543010  .00000897  00000-0  74449-4 0  9991,2 53425  53.2185  20.0182 0001068  95.8171 264.2943 15.08841663 92827,6917.875,95.437,540.479,539.001,0.0
53425.0,STARLINK-4531,PAYLOAD,2024-04-08 04:19:45,15.08848969,0.0001301,53.2186,18.8271,103.4299,256.6838,0.00012017,1.626e-05,0.0,0 STARLINK-4531,1 53425U 22097AP  24099.18038623  .00001626  00000-0  12017-3 0  9993,2 53425  53.2186  18.8271 0001301 103.4299 256.6838 15.08848969 92418,6917.853,95.437,540.618,538.818,0.0
53425.0,STARLINK-4531,PAYLOAD,2024-04-09 00:59:46,15.08833831,0.0001423,53.2182,14.9628,93.8863,266.2292,-2.7149e-05,-7.2e-06,0.0,0 STARLINK-4531,1 53425U 22097AP  24100.04150766 -.00000720  00000-0 -27149-4 0  9993,2 53425  53.2182  14.9628 0001423  93.8863 266.2292 15.08833831 92997,6917.899,95.438,540.749,538.78,0.0
53425.0,STARLINK-4531,PAYLOAD,2024-04-09 04:10:32,15.08834978,0.0001386,53.2188,14.3672,96.0142,264.1008,-7.185e-06,-4.02e-06,0.0,0 STARLINK-4531,1 53425U 22097AP  24100.17398961 -.00000402  00000-0 -71850-5 0  9994,2 53425  53.2188  14.3672 0001386  96.0142 264.1008 15.08834978 92567,6917.896,95.438,540.72,538.802,0.0
53425.0,STARLINK-4531,PAYLOAD,2024-04-10 10:22:52,15.08841172,0.0001439,53.2191,8.7182,93.7517,266.364,8.1738e-05,1.013e-05,0.0,0 STARLINK-4531,1 53425U 22097AP  24101.43254959  .00001013  00000-0  81738-4 0  9994,2 53425  53.2191   8.7182 0001439  93.7517 266.3640 15.08841172 92754,6917.877,95.437,540.737,538.746,0.0
53425.0,STARLINK-4531,PAYLOAD,2024-04-10 23:05:57,15.08845567,0.000158,53.2188,6.3398,95.8978,264.2195,0.00047021,7.204e-05,0.0,0 STARLINK-4531,1 53425U 22097AP  24101.96247130  .00007204  00000-0  47021-3 0  9999,2 53425  53.2188   6.3398 0001580  95.8978 264.2195 15.08845567 93287,6917.863,95.437,540.821,538.635,0.0
53425.0,STARLINK-4531,PAYLOAD,2024-04-11 10:13:39,15.08846043,0.0001684,53.2185,4.2561,79.4998,280.6184,0.00036389,5.509e-05,0.0,0 STARLINK-4531,1 53425U 22097AP  24102.42615141  .00005509  00000-0  36389-3 0  9993,2 53425  53.2185   4.2561 0001684  79.4998 280.6184 15.08846043 93356,6917.862,95.437,540.892,538.562,0.0
53425.0,STARLINK-4531,PAYLOAD,2024-04-11 21:21:21,15.08840057,0.0001406,53.2185,2.18,100.196,259.9191,6.3476e-05,7.22e-06,0.0,0 STARLINK-4531,1 53425U 22097AP  24102.88983214  .00000722  00000-0  63476-4 0  9992,2 53425  53.2185   2.1800 0001406 100.1960 259.9191 15.08840057 92975,6917.88,95.438,540.718,538.773,0.0
53425.0,STARLINK-4531,PAYLOAD,2024-04-12 00:32:07,15.08841625,0.0001379,53.2185,1.5858,100.2844,259.8304,0.00020224,2.932e-05,0.0,0 STARLINK-4531,1 53425U 22097AP  24103.02231151  .00002932  00000-0  20224-3 0  9993,2 53425  53.2185   1.5858 0001379 100.2844 259.8304 15.08841625 93442,6917.875,95.437,540.694,538.786,0.0
53425.0,STARLINK-4531,PAYLOAD,2024-04-12 22:47:33,15.08816755,0.0001753,53.2175,357.4156,62.7452,297.3719,0.00037566,5.692e-05,0.0,0 STARLINK-4531,1 53425U 22097AP  24103.94969151  .00005692  00000-0  37566-3 0  9995,2 53425  53.2175 357.4156 0001753  62.7452 297.3719 15.08816755 93586,6917.951,95.439,541.029,538.604,0.0
53425.0,STARLINK-4531,PAYLOAD,2024-04-13 01:58:19,15.08853349,0.000146,53.2183,356.8238,91.1287,268.9873,0.0010626,0.0001667,0.0,0 STARLINK-4531,1 53425U 22097AP  24104.08216786  .00016670  00000-0  10626-2 0  9995,2 53425  53.2183 356.8238 0001460  91.1287 268.9873 15.08853349 93154,6917.84,95.437,540.715,538.695,0.0
53425.0,STARLINK-4531,PAYLOAD,2024-04-13 21:02:55,15.08848271,0.0001578,53.2183,353.2541,88.2406,271.8767,0.00037339,5.661e-05,0.0,0 STARLINK-4531,1 53425U 22097AP  24104.87703431  .00005661  00000-0  37339-3 0  9999,2 53425  53.2183 353.2541 0001578  88.2406 271.8767 15.08848271 93278,6917.855,95.437,540.812,538.628,0.0
53425.0,STARLINK-4531,PAYLOAD,2024-04-14 20:53:42,15.08853575,0.0001398,53.2181,348.7954,90.7284,269.3868,-3.6553e-05,-8.7e-06,0.0,0 STARLINK-4531,1 53425U 22097AP  24105.87063230 -.00000870  00000-0 -36553-4 0  9993,2 53425  53.2181 348.7954 0001398  90.7284 269.3868 15.08853575 93429,6917.839,95.437,540.671,538.737,0.0
53425.0,STARLINK-4531,PAYLOAD,2024-04-14 22:29:05,15.08854159,0.0001498,53.2182,348.4984,82.7157,277.4005,1.632e-06,-2.62e-06,0.0,0 STARLINK-4531,1 53425U 22097AP  24105.93687243 -.00000262  00000-0  16320-5 0  9991,2 53425  53.2182 348.4984 0001498  82.7157 277.4005 15.08854159 93883,6917.837,95.437,540.738,538.666,0.0
53425.0,STARLINK-4531,PAYLOAD,2024-04-15 01:39:51,15.08856259,0.0001513,53.2188,347.9001,84.3252,275.7913,0.00010296,1.352e-05,0.0,0 STARLINK-4531,1 53425U 22097AP  24106.06935098  .00001352  00000-0  10296-3 0  9994,2 53425  53.2188 347.9001 0001513  84.3252 275.7913 15.08856259 93900,6917.831,95.437,540.742,538.649,0.0
53425.0,STARLINK-4531,PAYLOAD,2024-04-15 20:44:29,15.08846501,0.0001386,53.2182,344.3382,82.5384,277.5766,2.2832e-05,7.6e-07,0.0,0 STARLINK-4531,1 53425U 22097AP  24106.86423221  .00000076  00000-0  22832-4 0  9994,2 53425  53.2182 344.3382 0001386  82.5384 277.5766 15.08846501 93579,6917.861,95.437,540.684,538.767,0.0
53425.0,STARLINK-4531,PAYLOAD,2024-04-16 01:30:38,15.08851271,0.0001458,53.2182,343.4407,97.6188,262.497,0.00032201,4.842e-05,0.0,0 STARLINK-4531,1 53425U 22097AP  24107.06294991  .00004842  00000-0  32201-3 0  9992,2 53425  53.2182 343.4407 0001458  97.6188 262.4970 15.08851271 94050,6917.846,95.437,540.72,538.702,0.0
53425.0,STARLINK-4531,PAYLOAD,2024-04-16 22:10:39,15.08854404,0.0001445,53.2184,339.576,99.7567,260.3589,0.00030954,4.644e-05,0.0,0 STARLINK-4531,1 53425U 22097AP  24107.92406941  .00004644  00000-0  30954-3 0  9990,2 53425  53.2184 339.5760 0001445  99.7567 260.3589 15.08854404 94188,6917.836,95.437,540.701,538.702,0.0
53425.0,STARLINK-4531,PAYLOAD,2024-04-17 01:21:25,15.08858157,0.0001368,53.2181,338.9788,95.9204,264.1944,0.00049973,7.678e-05,0.0,0 STARLINK-4531,1 53425U 22097AP  24108.05654825  .00007678  00000-0  49973-3 0  9992,2 53425  53.2181 338.9788 0001368  95.9204 264.1944 15.08858157 93756,6917.825,95.436,540.636,538.744,0.0
53425.0,STARLINK-4531,PAYLOAD,2024-04-17 22:01:26,15.08868892,0.0001444,53.2179,335.1169,95.7477,264.3679,0.00079851,0.00012453,0.0,0 STARLINK-4531,1 53425U 22097AP  24108.91766383  .00012453  00000-0  79851-3 0  9995,2 53425  53.2179 335.1169 0001444  95.7477 264.3679 15.08868892 93888,6917.792,95.436,540.656,538.658,0.0
53425.0,STARLINK-4531,PAYLOAD,2024-04-18 20:16:50,15.08840433,0.0001533,53.2176,330.9521,95.5441,264.5726,-2.5207e-05,-6.89e-06,0.0,0 STARLINK-4531,1 53425U 22097AP  24109.84502692 -.00000689  00000-0 -25207-4 0  9996,2 53425  53.2176 330.9521 0001533  95.5441 264.5726 15.08840433 94021,6917.879,95.438,540.805,538.684,0.0
53425.0,STARLINK-4531,PAYLOAD,2024-04-18 21:52:13,15.08837037,0.0001569,53.2176,330.6541,79.4483,280.6685,-5.3876e-05,-1.145e-05,0.0,0 STARLINK-4531,1 53425U 22097AP  24109.91126911 -.00001145  00000-0 -53876-4 0  9991,2 53425  53.2176 330.6541 0001569  79.4483 280.6685 15.08837037 94485,6917.889,95.438,540.84,538.669,0.0
